{"type": "FeatureCollection", "features": [{"type": "Feature", "geometry": {"type": "Point", "coordinates": [114.01880915410338, -0.19135804918078694]}, "properties": {"name": "Indonesia", "iso": "IDN"}}, {"type": "Feature", "geometry": {"type": "Point", "coordinates": [114.7212628401587, 3.6147609081608625]}, "properties": {"name": "Malaysia", "iso": "MYS"}}, {"type": "Feature", "geometry": {"type": "Point", "coordinates": [-71.24567954505476, -35.45195038502292]}, "properties": {"name": "Chile", "iso": "CHL"}}, {"type": "Feature", "geometry": {"type": "Point", "coordinates": [-64.68475368279178, -16.70687679599914]}, "properties": {"name": "Bolivia", "iso": "BOL"}}, {"type": "Feature", "geometry": {"type": "Point", "coordinates": [-74.37788192547718, -9.15432286063373]}, "properties": {"name": "Peru", "iso": "PER"}}, {"type": "Feature", "geometry": {"type": "Point", "coordinates": [-65.14997748039768, -35.17747049250677]}, "properties": {"name": "Argentina", "iso": "ARG"}}, {"type": "Feature", "geometry": {"type": "Point", "coordinates": [33.79299641481012, 35.01779610907654]}, "properties": {"name": "Dhekelia Sovereign Base Area", "iso": "-99"}}, {"type": "Feature", "geometry": {"type": "Point", "coordinates": [32.95407583377428, 34.911468612270724]}, "properties": {"name": "Cyprus", "iso": "CYP"}}, {"type": "Feature", "geometry": {"type": "Point", "coordinates": [103.80638128258333, 36.616870151372176]}, "properties": {"name": "China", "iso": "CHN"}}, {"type": "Feature", "geometry": {"type": "Point", "coordinates": [34.99700921700885, 31.447612153578227]}, "properties": {"name": "Israel", "iso": "ISR"}}, {"type": "Feature", "geometry": {"type": "Point", "coordinates": [35.250401290426346, 31.948373633576942]}, "properties": {"name": "Palestine", "iso": "PSE"}}, {"type": "Feature", "geometry": {"type": "Point", "coordinates": [35.87983049751742, 33.92009323529405]}, "properties": {"name": "Lebanon", "iso": "LBN"}}, {"type": "Feature", "geometry": {"type": "Point", "coordinates": [39.60055106466087, 8.62295173872924]}, "properties": {"name": "Ethiopia", "iso": "ETH"}}, {"type": "Feature", "geometry": {"type": "Point", "coordinates": [30.301119588363765, 7.283530661902219]}, "properties": {"name": "South Sudan", "iso": "SSD"}}, {"type": "Feature", "geometry": {"type": "Point", "coordinates": [45.7061443405072, 4.748836737446842]}, "properties": {"name": "Somalia", "iso": "SOM"}}, {"type": "Feature", "geometry": {"type": "Point", "coordinates": [37.8214880507041, 0.5515463365273373]}, "properties": {"name": "Kenya", "iso": "KEN"}}, {"type": "Feature", "geometry": {"type": "Point", "coordinates": [34.289287756607095, -13.219178819877778]}, "properties": {"name": "Malawi", "iso": "MWI"}}, {"type": "Feature", "geometry": {"type": "Point", "coordinates": [34.798532561333595, -6.275566849543627]}, "properties": {"name": "United Republic of Tanzania", "iso": "TZA"}}, {"type": "Feature", "geometry": {"type": "Point", "coordinates": [38.5045647876633, 35.0230034392104]}, "properties": {"name": "Syria", "iso": "SYR"}}, {"type": "Feature", "geometry": {"type": "Point", "coordinates": [46.254819242179124, 9.731015902508382]}, "properties": {"name": "Somaliland", "iso": "-99"}}, {"type": "Feature", "geometry": {"type": "Point", "coordinates": [2.4521888857618066, 46.62065825739557]}, "properties": {"name": "France", "iso": "-99"}}, {"type": "Feature", "geometry": {"type": "Point", "coordinates": [-55.91107135496456, 4.131244948279492]}, "properties": {"name": "Suriname", "iso": "SUR"}}, {"type": "Feature", "geometry": {"type": "Point", "coordinates": [-58.980287410924724, 4.79281507546731]}, "properties": {"name": "Guyana", "iso": "GUY"}}, {"type": "Feature", "geometry": {"type": "Point", "coordinates": [127.86718271131696, 36.459823612892]}, "properties": {"name": "South Korea", "iso": "KOR"}}, {"type": "Feature", "geometry": {"type": "Point", "coordinates": [127.18672566789783, 40.15221030621596]}, "properties": {"name": "North Korea", "iso": "PRK"}}, {"type": "Feature", "geometry": {"type": "Point", "coordinates": [-8.396435017459739, 29.841692143581046]}, "properties": {"name": "Morocco", "iso": "MAR"}}, {"type": "Feature", "geometry": {"type": "Point", "coordinates": [-12.214961317048699, 24.232561147614994]}, "properties": {"name": "Western Sahara", "iso": "ESH"}}, {"type": "Feature", "geometry": {"type": "Point", "coordinates": [-84.19194118746367, 9.974782761940117]}, "properties": {"name": "Costa Rica", "iso": "CRI"}}, {"type": "Feature", "geometry": {"type": "Point", "coordinates": [-85.03434539907246, 12.845240173773432]}, "properties": {"name": "Nicaragua", "iso": "NIC"}}, {"type": "Feature", "geometry": {"type": "Point", "coordinates": [15.218336122091753, -0.8388799421107274]}, "properties": {"name": "Republic of the Congo", "iso": "COG"}}, {"type": "Feature", "geometry": {"type": "Point", "coordinates": [23.645663460359817, -2.8796458104596137]}, "properties": {"name": "Democratic Republic of the Congo", "iso": "COD"}}, {"type": "Feature", "geometry": {"type": "Point", "coordinates": [90.40668784260687, 27.42150852788881]}, "properties": {"name": "Bhutan", "iso": "BTN"}}, {"type": "Feature", "geometry": {"type": "Point", "coordinates": [31.25518017318159, 49.160982042693064]}, "properties": {"name": "Ukraine", "iso": "UKR"}}, {"type": "Feature", "geometry": {"type": "Point", "coordinates": [28.033566655607395, 53.53188044413329]}, "properties": {"name": "Belarus", "iso": "BLR"}}, {"type": "Feature", "geometry": {"type": "Point", "coordinates": [17.211133154867635, -22.129246657334843]}, "properties": {"name": "Namibia", "iso": "NAM"}}, {"type": "Feature", "geometry": {"type": "Point", "coordinates": [25.08313527147161, -28.995070939445768]}, "properties": {"name": "South Africa", "iso": "ZAF"}}, {"type": "Feature", "geometry": {"type": "Point", "coordinates": [-63.05507065954958, 18.07762049523388]}, "properties": {"name": "Saint Martin", "iso": "MAF"}}, {"type": "Feature", "geometry": {"type": "Point", "coordinates": [-63.07013294590069, 18.040630259535366]}, "properties": {"name": "Sint Maarten", "iso": "SXM"}}, {"type": "Feature", "geometry": {"type": "Point", "coordinates": [56.085929808659095, 20.572673891857328]}, "properties": {"name": "Oman", "iso": "OMN"}}, {"type": "Feature", "geometry": {"type": "Point", "coordinates": [63.13190905051842, 41.75779088025667]}, "properties": {"name": "Uzbekistan", "iso": "UZB"}}, {"type": "Feature", "geometry": {"type": "Point", "coordinates": [67.29828219458147, 48.16104095823186]}, "properties": {"name": "Kazakhstan", "iso": "KAZ"}}, {"type": "Feature", "geometry": {"type": "Point", "coordinates": [71.01628915718707, 38.528227492193906]}, "properties": {"name": "Tajikistan", "iso": "TJK"}}, {"type": "Feature", "geometry": {"type": "Point", "coordinates": [23.894071191752047, 55.32673356018267]}, "properties": {"name": "Lithuania", "iso": "LTU"}}, {"type": "Feature", "geometry": {"type": "Point", "coordinates": [-53.114637893187606, -10.838520878783312]}, "properties": {"name": "Brazil", "iso": "BRA"}}, {"type": "Feature", "geometry": {"type": "Point", "coordinates": [-56.01713024804987, -32.798251179880936]}, "properties": {"name": "Uruguay", "iso": "URY"}}, {"type": "Feature", "geometry": {"type": "Point", "coordinates": [103.05628656671418, 46.825806071450636]}, "properties": {"name": "Mongolia", "iso": "MNG"}}, {"type": "Feature", "geometry": {"type": "Point", "coordinates": [99.07084953952585, 61.66113180407774]}, "properties": {"name": "Russia", "iso": "RUS"}}, {"type": "Feature", "geometry": {"type": "Point", "coordinates": [15.314102922471418, 49.73244814911318]}, "properties": {"name": "Czechia", "iso": "CZE"}}, {"type": "Feature", "geometry": {"type": "Point", "coordinates": [10.370788526959288, 51.087103685976075]}, "properties": {"name": "Germany", "iso": "DEU"}}, {"type": "Feature", "geometry": {"type": "Point", "coordinates": [25.831378179614134, 58.684171243652784]}, "properties": {"name": "Estonia", "iso": "EST"}}, {"type": "Feature", "geometry": {"type": "Point", "coordinates": [24.908622245775963, 56.851819504647096]}, "properties": {"name": "Latvia", "iso": "LVA"}}, {"type": "Feature", "geometry": {"type": "Point", "coordinates": [14.02150850874572, 64.23880400648986]}, "properties": {"name": "Norway", "iso": "-99"}}, {"type": "Feature", "geometry": {"type": "Point", "coordinates": [16.74399160810122, 62.830187681400766]}, "properties": {"name": "Sweden", "iso": "SWE"}}, {"type": "Feature", "geometry": {"type": "Point", "coordinates": [26.287825413441816, 64.50972075716157]}, "properties": {"name": "Finland", "iso": "FIN"}}, {"type": "Feature", "geometry": {"type": "Point", "coordinates": [106.30065220918014, 16.65765688557509]}, "properties": {"name": "Vietnam", "iso": "VNM"}}, {"type": "Feature", "geometry": {"type": "Point", "coordinates": [104.90525198533824, 12.718006288941416]}, "properties": {"name": "Cambodia", "iso": "KHM"}}, {"type": "Feature", "geometry": {"type": "Point", "coordinates": [6.071763925517945, 49.76682434262135]}, "properties": {"name": "Luxembourg", "iso": "LUX"}}, {"type": "Feature", "geometry": {"type": "Point", "coordinates": [54.30715000591328, 23.901805409911482]}, "properties": {"name": "United Arab Emirates", "iso": "ARE"}}, {"type": "Feature", "geometry": {"type": "Point", "coordinates": [4.6399605431060245, 50.637461611660044]}, "properties": {"name": "Belgium", "iso": "BEL"}}, {"type": "Feature", "geometry": {"type": "Point", "coordinates": [43.50752638038203, 42.1688007566316]}, "properties": {"name": "Georgia", "iso": "GEO"}}, {"type": "Feature", "geometry": {"type": "Point", "coordinates": [21.683830378631463, 41.59500494915235]}, "properties": {"name": "North Macedonia", "iso": "MKD"}}, {"type": "Feature", "geometry": {"type": "Point", "coordinates": [20.053819122273122, 41.14248213433068]}, "properties": {"name": "Albania", "iso": "ALB"}}, {"type": "Feature", "geometry": {"type": "Point", "coordinates": [47.66066314891599, 40.34570503969756]}, "properties": {"name": "Azerbaijan", "iso": "AZE"}}, {"type": "Feature", "geometry": {"type": "Point", "coordinates": [20.873742919669333, 42.57288337420534]}, "properties": {"name": "Kosovo", "iso": "-99"}}, {"type": "Feature", "geometry": {"type": "Point", "coordinates": [35.42354406342373, 38.98957975089483]}, "properties": {"name": "Turkey", "iso": "TUR"}}, {"type": "Feature", "geometry": {"type": "Point", "coordinates": [-3.5629097612768588, 40.389544413750194]}, "properties": {"name": "Spain", "iso": "ESP"}}, {"type": "Feature", "geometry": {"type": "Point", "coordinates": [103.73787189457269, 18.502301645904584]}, "properties": {"name": "Laos", "iso": "LAO"}}, {"type": "Feature", "geometry": {"type": "Point", "coordinates": [74.54166942762035, 41.46191871552191]}, "properties": {"name": "Kyrgyzstan", "iso": "KGZ"}}, {"type": "Feature", "geometry": {"type": "Point", "coordinates": [44.93160570942691, 40.28772043559105]}, "properties": {"name": "Armenia", "iso": "ARM"}}, {"type": "Feature", "geometry": {"type": "Point", "coordinates": [9.374606848513404, 56.22697689330416]}, "properties": {"name": "Denmark", "iso": "DNK"}}, {"type": "Feature", "geometry": {"type": "Point", "coordinates": [18.00960524581526, 27.030277932087323]}, "properties": {"name": "Libya", "iso": "LBY"}}, {"type": "Feature", "geometry": {"type": "Point", "coordinates": [9.548797449297933, 34.11982722146793]}, "properties": {"name": "Tunisia", "iso": "TUN"}}, {"type": "Feature", "geometry": {"type": "Point", "coordinates": [24.972941889159763, 45.853464124716936]}, "properties": {"name": "Romania", "iso": "ROU"}}, {"type": "Feature", "geometry": {"type": "Point", "coordinates": [19.396759329969008, 47.163243698419926]}, "properties": {"name": "Hungary", "iso": "HUN"}}, {"type": "Feature", "geometry": {"type": "Point", "coordinates": [19.480382917716636, 48.70493530010151]}, "properties": {"name": "Slovakia", "iso": "SVK"}}, {"type": "Feature", "geometry": {"type": "Point", "coordinates": [19.394322185332136, 52.12477181004819]}, "properties": {"name": "Poland", "iso": "POL"}}, {"type": "Feature", "geometry": {"type": "Point", "coordinates": [-8.1382624610689, 53.17669593113496]}, "properties": {"name": "Ireland", "iso": "IRL"}}, {"type": "Feature", "geometry": {"type": "Point", "coordinates": [-2.518654933891879, 53.94760892786055]}, "properties": {"name": "United Kingdom", "iso": "GBR"}}, {"type": "Feature", "geometry": {"type": "Point", "coordinates": [22.581859678327614, 39.47499807908357]}, "properties": {"name": "Greece", "iso": "GRC"}}, {"type": "Feature", "geometry": {"type": "Point", "coordinates": [27.7742123284096, -13.460109996513628]}, "properties": {"name": "Zambia", "iso": "ZMB"}}, {"type": "Feature", "geometry": {"type": "Point", "coordinates": [-11.787342954688857, 8.57191082782283]}, "properties": {"name": "Sierra Leone", "iso": "SLE"}}, {"type": "Feature", "geometry": {"type": "Point", "coordinates": [-10.94306130947578, 10.434649032607828]}, "properties": {"name": "Guinea", "iso": "GIN"}}, {"type": "Feature", "geometry": {"type": "Point", "coordinates": [-9.319863984315953, 6.452232581602914]}, "properties": {"name": "Liberia", "iso": "LBR"}}, {"type": "Feature", "geometry": {"type": "Point", "coordinates": [20.46480921377791, 6.566321890640105]}, "properties": {"name": "Central African Republic", "iso": "CAF"}}, {"type": "Feature", "geometry": {"type": "Point", "coordinates": [29.93526676070638, 15.980153582865412]}, "properties": {"name": "Sudan", "iso": "SDN"}}, {"type": "Feature", "geometry": {"type": "Point", "coordinates": [42.566453727853215, 11.750155890292163]}, "properties": {"name": "Djibouti", "iso": "DJI"}}, {"type": "Feature", "geometry": {"type": "Point", "coordinates": [38.844833419814286, 15.355110609965918]}, "properties": {"name": "Eritrea", "iso": "ERI"}}, {"type": "Feature", "geometry": {"type": "Point", "coordinates": [14.130672976239197, 47.58565692753397]}, "properties": {"name": "Austria", "iso": "AUT"}}, {"type": "Feature", "geometry": {"type": "Point", "coordinates": [43.74497701608478, 33.039803790399844]}, "properties": {"name": "Iraq", "iso": "IRQ"}}, {"type": "Feature", "geometry": {"type": "Point", "coordinates": [12.154895770280069, 43.523032038110706]}, "properties": {"name": "Italy", "iso": "ITA"}}, {"type": "Feature", "geometry": {"type": "Point", "coordinates": [8.215353711582264, 46.79895688357992]}, "properties": {"name": "Switzerland", "iso": "CHE"}}, {"type": "Feature", "geometry": {"type": "Point", "coordinates": [54.27562477319145, 32.57684398995549]}, "properties": {"name": "Iran", "iso": "IRN"}}, {"type": "Feature", "geometry": {"type": "Point", "coordinates": [5.639273266977168, 52.282283198797494]}, "properties": {"name": "Netherlands", "iso": "NLD"}}, {"type": "Feature", "geometry": {"type": "Point", "coordinates": [9.540900145282913, 47.138206301570584]}, "properties": {"name": "Liechtenstein", "iso": "LIE"}}, {"type": "Feature", "geometry": {"type": "Point", "coordinates": [-5.569474639873103, 7.628469223694564]}, "properties": {"name": "Ivory Coast", "iso": "CIV"}}, {"type": "Feature", "geometry": {"type": "Point", "coordinates": [20.78925243513805, 44.22214764404905]}, "properties": {"name": "Republic of Serbia", "iso": "SRB"}}, {"type": "Feature", "geometry": {"type": "Point", "coordinates": [-3.5390793977250303, 17.344162746241345]}, "properties": {"name": "Mali", "iso": "MLI"}}, {"type": "Feature", "geometry": {"type": "Point", "coordinates": [-14.471305976705414, 14.367788645409162]}, "properties": {"name": "Senegal", "iso": "SEN"}}, {"type": "Feature", "geometry": {"type": "Point", "coordinates": [8.091489943723765, 9.596971340709771]}, "properties": {"name": "Nigeria", "iso": "NGA"}}, {"type": "Feature", "geometry": {"type": "Point", "coordinates": [2.328740682876135, 9.641216602468445]}, "properties": {"name": "Benin", "iso": "BEN"}}, {"type": "Feature", "geometry": {"type": "Point", "coordinates": [17.564336297726978, -12.330512729487056]}, "properties": {"name": "Angola", "iso": "AGO"}}, {"type": "Feature", "geometry": {"type": "Point", "coordinates": [16.418997348693484, 45.155771400349856]}, "properties": {"name": "Croatia", "iso": "HRV"}}, {"type": "Feature", "geometry": {"type": "Point", "coordinates": [14.808103984457686, 46.11611905275711]}, "properties": {"name": "Slovenia", "iso": "SVN"}}, {"type": "Feature", "geometry": {"type": "Point", "coordinates": [51.186831349835565, 25.3130746645514]}, "properties": {"name": "Qatar", "iso": "QAT"}}, {"type": "Feature", "geometry": {"type": "Point", "coordinates": [44.53863585284107, 24.124096722809085]}, "properties": {"name": "Saudi Arabia", "iso": "SAU"}}, {"type": "Feature", "geometry": {"type": "Point", "coordinates": [23.798986700580777, -22.185772285612767]}, "properties": {"name": "Botswana", "iso": "BWA"}}, {"type": "Feature", "geometry": {"type": "Point", "coordinates": [29.851884627150046, -19.00253668460274]}, "properties": {"name": "Zimbabwe", "iso": "ZWE"}}, {"type": "Feature", "geometry": {"type": "Point", "coordinates": [69.34141797427631, 29.94872851106573]}, "properties": {"name": "Pakistan", "iso": "PAK"}}, {"type": "Feature", "geometry": {"type": "Point", "coordinates": [25.217512545616774, 42.76852262366868]}, "properties": {"name": "Bulgaria", "iso": "BGR"}}, {"type": "Feature", "geometry": {"type": "Point", "coordinates": [101.00874652186569, 15.137214349742996]}, "properties": {"name": "Thailand", "iso": "THA"}}, {"type": "Feature", "geometry": {"type": "Point", "coordinates": [12.44222254538202, 43.93646626338044]}, "properties": {"name": "San Marino", "iso": "SMR"}}, {"type": "Feature", "geometry": {"type": "Point", "coordinates": [-72.67736303698004, 18.93507426823151]}, "properties": {"name": "Haiti", "iso": "HTI"}}, {"type": "Feature", "geometry": {"type": "Point", "coordinates": [-70.50034295430056, 18.8992328443074]}, "properties": {"name": "Dominican Republic", "iso": "DOM"}}, {"type": "Feature", "geometry": {"type": "Point", "coordinates": [18.6462511032848, 15.33307810950757]}, "properties": {"name": "Chad", "iso": "TCD"}}, {"type": "Feature", "geometry": {"type": "Point", "coordinates": [47.564990398987845, 29.32009243615112]}, "properties": {"name": "Kuwait", "iso": "KWT"}}, {"type": "Feature", "geometry": {"type": "Point", "coordinates": [-88.8723246589284, 13.736452836769459]}, "properties": {"name": "El Salvador", "iso": "SLV"}}, {"type": "Feature", "geometry": {"type": "Point", "coordinates": [-90.36015691056666, 15.696016455731815]}, "properties": {"name": "Guatemala", "iso": "GTM"}}, {"type": "Feature", "geometry": {"type": "Point", "coordinates": [125.93659590325885, -8.803726774249643]}, "properties": {"name": "East Timor", "iso": "TLS"}}, {"type": "Feature", "geometry": {"type": "Point", "coordinates": [114.59802904734292, 4.493326239724771]}, "properties": {"name": "Brunei", "iso": "BRN"}}, {"type": "Feature", "geometry": {"type": "Point", "coordinates": [7.3989741501966995, 43.73984629340104]}, "properties": {"name": "Monaco", "iso": "MCO"}}, {"type": "Feature", "geometry": {"type": "Point", "coordinates": [2.6530913857768414, 28.148889643064805]}, "properties": {"name": "Algeria", "iso": "DZA"}}, {"type": "Feature", "geometry": {"type": "Point", "coordinates": [35.537461072632574, -17.26907642166525]}, "properties": {"name": "Mozambique", "iso": "MOZ"}}, {"type": "Feature", "geometry": {"type": "Point", "coordinates": [31.480024099453484, -26.561914238892175]}, "properties": {"name": "eSwatini", "iso": "SWZ"}}, {"type": "Feature", "geometry": {"type": "Point", "coordinates": [29.875082730106865, -3.357425368272595]}, "properties": {"name": "Burundi", "iso": "BDI"}}, {"type": "Feature", "geometry": {"type": "Point", "coordinates": [29.919060743838415, -1.9927505324805435]}, "properties": {"name": "Rwanda", "iso": "RWA"}}, {"type": "Feature", "geometry": {"type": "Point", "coordinates": [96.48879964421131, 21.213845521591367]}, "properties": {"name": "Myanmar", "iso": "MMR"}}, {"type": "Feature", "geometry": {"type": "Point", "coordinates": [90.22733981880114, 23.881420254513948]}, "properties": {"name": "Bangladesh", "iso": "BGD"}}, {"type": "Feature", "geometry": {"type": "Point", "coordinates": [1.5607561360940787, 42.541326538774214]}, "properties": {"name": "Andorra", "iso": "AND"}}, {"type": "Feature", "geometry": {"type": "Point", "coordinates": [66.00844766862315, 33.8362670371747]}, "properties": {"name": "Afghanistan", "iso": "AFG"}}, {"type": "Feature", "geometry": {"type": "Point", "coordinates": [19.23849998612216, 42.78581815406624]}, "properties": {"name": "Montenegro", "iso": "MNE"}}, {"type": "Feature", "geometry": {"type": "Point", "coordinates": [17.773407982879895, 44.17173403636953]}, "properties": {"name": "Bosnia and Herzegovina", "iso": "BIH"}}, {"type": "Feature", "geometry": {"type": "Point", "coordinates": [32.367039869294395, 1.2756913016376465]}, "properties": {"name": "Uganda", "iso": "UGA"}}, {"type": "Feature", "geometry": {"type": "Point", "coordinates": [-75.12367162245532, 19.923430785970638]}, "properties": {"name": "US Naval Base Guantanamo Bay", "iso": "-99"}}, {"type": "Feature", "geometry": {"type": "Point", "coordinates": [-78.95849582771584, 21.614031990343612]}, "properties": {"name": "Cuba", "iso": "CUB"}}, {"type": "Feature", "geometry": {"type": "Point", "coordinates": [-86.62516179517993, 14.818428228993305]}, "properties": {"name": "Honduras", "iso": "HND"}}, {"type": "Feature", "geometry": {"type": "Point", "coordinates": [-78.3872175589689, -1.4488623862422974]}, "properties": {"name": "Ecuador", "iso": "ECU"}}, {"type": "Feature", "geometry": {"type": "Point", "coordinates": [-73.08134224553672, 3.9093072303821317]}, "properties": {"name": "Colombia", "iso": "COL"}}, {"type": "Feature", "geometry": {"type": "Point", "coordinates": [-58.398422792503, -23.227518817625498]}, "properties": {"name": "Paraguay", "iso": "PRY"}}, {"type": "Feature", "geometry": {"type": "Point", "coordinates": [-57.62304194167083, -30.18795521610712]}, "properties": {"name": "Brazilian Island", "iso": "-99"}}, {"type": "Feature", "geometry": {"type": "Point", "coordinates": [-7.974696756812659, 39.68082313443541]}, "properties": {"name": "Portugal", "iso": "PRT"}}, {"type": "Feature", "geometry": {"type": "Point", "coordinates": [28.461397099133467, 47.195101515318015]}, "properties": {"name": "Moldova", "iso": "MDA"}}, {"type": "Feature", "geometry": {"type": "Point", "coordinates": [59.37746779932978, 39.1159230277635]}, "properties": {"name": "Turkmenistan", "iso": "TKM"}}, {"type": "Feature", "geometry": {"type": "Point", "coordinates": [36.7709231799615, 31.24557614134442]}, "properties": {"name": "Jordan", "iso": "JOR"}}, {"type": "Feature", "geometry": {"type": "Point", "coordinates": [83.9162533811473, 28.247922231611295]}, "properties": {"name": "Nepal", "iso": "NPL"}}, {"type": "Feature", "geometry": {"type": "Point", "coordinates": [28.228622937487867, -29.579730383989276]}, "properties": {"name": "Lesotho", "iso": "LSO"}}, {"type": "Feature", "geometry": {"type": "Point", "coordinates": [12.73698415610122, 5.693058207676711]}, "properties": {"name": "Cameroon", "iso": "CMR"}}, {"type": "Feature", "geometry": {"type": "Point", "coordinates": [11.790918802134895, -0.5916119324524414]}, "properties": {"name": "Gabon", "iso": "GAB"}}, {"type": "Feature", "geometry": {"type": "Point", "coordinates": [9.386034031002227, 17.418463778904304]}, "properties": {"name": "Niger", "iso": "NER"}}, {"type": "Feature", "geometry": {"type": "Point", "coordinates": [-1.7555277328352306, 12.269553889839209]}, "properties": {"name": "Burkina Faso", "iso": "BFA"}}, {"type": "Feature", "geometry": {"type": "Point", "coordinates": [0.9622715789802447, 8.526788150903716]}, "properties": {"name": "Togo", "iso": "TGO"}}, {"type": "Feature", "geometry": {"type": "Point", "coordinates": [-1.2165238430488383, 7.9539547235318]}, "properties": {"name": "Ghana", "iso": "GHA"}}, {"type": "Feature", "geometry": {"type": "Point", "coordinates": [-14.929007573100398, 12.056885174049546]}, "properties": {"name": "Guinea-Bissau", "iso": "GNB"}}, {"type": "Feature", "geometry": {"type": "Point", "coordinates": [-5.346700411151223, 36.129463472032356]}, "properties": {"name": "Gibraltar", "iso": "GIB"}}, {"type": "Feature", "geometry": {"type": "Point", "coordinates": [-99.14448740266262, 39.52800059325162]}, "properties": {"name": "United States of America", "iso": "USA"}}, {"type": "Feature", "geometry": {"type": "Point", "coordinates": [-102.35642645537669, 57.939412860427765]}, "properties": {"name": "Canada", "iso": "CAN"}}, {"type": "Feature", "geometry": {"type": "Point", "coordinates": [-102.51051580421529, 23.9424332441177]}, "properties": {"name": "Mexico", "iso": "MEX"}}, {"type": "Feature", "geometry": {"type": "Point", "coordinates": [-88.70404342319137, 17.201471495287404]}, "properties": {"name": "Belize", "iso": "BLZ"}}, {"type": "Feature", "geometry": {"type": "Point", "coordinates": [-80.10708923487887, 8.522479529800366]}, "properties": {"name": "Panama", "iso": "PAN"}}, {"type": "Feature", "geometry": {"type": "Point", "coordinates": [-66.18370828233269, 7.117379734010335]}, "properties": {"name": "Venezuela", "iso": "VEN"}}, {"type": "Feature", "geometry": {"type": "Point", "coordinates": [144.249807302006, -6.612073479201444]}, "properties": {"name": "Papua New Guinea", "iso": "PNG"}}, {"type": "Feature", "geometry": {"type": "Point", "coordinates": [29.860291215563823, 26.49264648348336]}, "properties": {"name": "Egypt", "iso": "EGY"}}, {"type": "Feature", "geometry": {"type": "Point", "coordinates": [47.54194670138831, 15.935050153989712]}, "properties": {"name": "Yemen", "iso": "YEM"}}, {"type": "Feature", "geometry": {"type": "Point", "coordinates": [-10.342116438592004, 20.25632206874924]}, "properties": {"name": "Mauritania", "iso": "MRT"}}, {"type": "Feature", "geometry": {"type": "Point", "coordinates": [10.46741054854519, 1.56517578256974]}, "properties": {"name": "Equatorial Guinea", "iso": "GNQ"}}, {"type": "Feature", "geometry": {"type": "Point", "coordinates": [-15.397582022297485, 13.449729499705459]}, "properties": {"name": "Gambia", "iso": "GMB"}}, {"type": "Feature", "geometry": {"type": "Point", "coordinates": [114.16083401125098, 22.424502455517732]}, "properties": {"name": "Hong Kong S.A.R.", "iso": "HKG"}}, {"type": "Feature", "geometry": {"type": "Point", "coordinates": [12.453417684489558, 41.903312653497046]}, "properties": {"name": "Vatican", "iso": "VAT"}}, {"type": "Feature", "geometry": {"type": "Point", "coordinates": [33.59948453858243, 35.27659511900233]}, "properties": {"name": "Northern Cyprus", "iso": "-99"}}, {"type": "Feature", "geometry": {"type": "Point", "coordinates": [33.25348434696655, 35.10124774230484]}, "properties": {"name": "Cyprus No Mans Area", "iso": "-99"}}, {"type": "Feature", "geometry": {"type": "Point", "coordinates": [63.38389704184427, 45.978330069561494]}, "properties": {"name": "Baykonur Cosmodrome", "iso": "-99"}}, {"type": "Feature", "geometry": {"type": "Point", "coordinates": [32.93399506367824, 34.63181339392826]}, "properties": {"name": "Akrotiri Sovereign Base Area", "iso": "-99"}}, {"type": "Feature", "geometry": {"type": "Point", "coordinates": [-73.31883367131411, -49.51234275311339]}, "properties": {"name": "Southern Patagonian Ice Field", "iso": "-99"}}, {"type": "Feature", "geometry": {"type": "Point", "coordinates": [33.68202802415133, 21.879868849890578]}, "properties": {"name": "Bir Tawil", "iso": "-99"}}, {"type": "Feature", "geometry": {"type": "Point", "coordinates": [20.821024834097592, -80.56234283465712]}, "properties": {"name": "Antarctica", "iso": "ATA"}}, {"type": "Feature", "geometry": {"type": "Point", "coordinates": [134.35407492672343, -25.57357715069227]}, "properties": {"name": "Australia", "iso": "AUS"}}, {"type": "Feature", "geometry": {"type": "Point", "coordinates": [-41.43535486236546, 74.75933331210437]}, "properties": {"name": "Greenland", "iso": "GRL"}}, {"type": "Feature", "geometry": {"type": "Point", "coordinates": [177.97519893314825, -17.824134041174343]}, "properties": {"name": "Fiji", "iso": "FJI"}}, {"type": "Feature", "geometry": {"type": "Point", "coordinates": [170.5200047045343, -43.984230360626334]}, "properties": {"name": "New Zealand", "iso": "NZL"}}, {"type": "Feature", "geometry": {"type": "Point", "coordinates": [165.48704258977352, -21.32555076455933]}, "properties": {"name": "New Caledonia", "iso": "NCL"}}, {"type": "Feature", "geometry": {"type": "Point", "coordinates": [46.70413150463415, -19.376895652580025]}, "properties": {"name": "Madagascar", "iso": "MDG"}}, {"type": "Feature", "geometry": {"type": "Point", "coordinates": [121.41797274393228, 15.953361206073716]}, "properties": {"name": "Philippines", "iso": "PHL"}}, {"type": "Feature", "geometry": {"type": "Point", "coordinates": [80.70515342964254, 7.609360274450162]}, "properties": {"name": "Sri Lanka", "iso": "LKA"}}, {"type": "Feature", "geometry": {"type": "Point", "coordinates": [-68.97130566269834, 12.193821081104957]}, "properties": {"name": "Cura\u00e7ao", "iso": "CUW"}}, {"type": "Feature", "geometry": {"type": "Point", "coordinates": [-69.97420088761085, 12.516935254396325]}, "properties": {"name": "Aruba", "iso": "ABW"}}, {"type": "Feature", "geometry": {"type": "Point", "coordinates": [-78.0397299572565, 24.703818193741085]}, "properties": {"name": "The Bahamas", "iso": "BHS"}}, {"type": "Feature", "geometry": {"type": "Point", "coordinates": [-71.74188454622725, 21.80926024180871]}, "properties": {"name": "Turks and Caicos Islands", "iso": "TCA"}}, {"type": "Feature", "geometry": {"type": "Point", "coordinates": [120.96434711929551, 23.753332143726528]}, "properties": {"name": "Taiwan", "iso": "TWN"}}, {"type": "Feature", "geometry": {"type": "Point", "coordinates": [137.97247130883164, 36.65050297774413]}, "properties": {"name": "Japan", "iso": "JPN"}}, {"type": "Feature", "geometry": {"type": "Point", "coordinates": [-56.32441980176771, 46.9516119151459]}, "properties": {"name": "Saint Pierre and Miquelon", "iso": "SPM"}}, {"type": "Feature", "geometry": {"type": "Point", "coordinates": [-18.59639576780778, 64.99841195531735]}, "properties": {"name": "Iceland", "iso": "ISL"}}, {"type": "Feature", "geometry": {"type": "Point", "coordinates": [-128.3170807221316, -24.36603158616746]}, "properties": {"name": "Pitcairn Islands", "iso": "PCN"}}, {"type": "Feature", "geometry": {"type": "Point", "coordinates": [-149.42048351244736, -17.663914024540365]}, "properties": {"name": "French Polynesia", "iso": "PYF"}}, {"type": "Feature", "geometry": {"type": "Point", "coordinates": [69.50124986061601, -49.31085836145471]}, "properties": {"name": "French Southern and Antarctic Lands", "iso": "ATF"}}, {"type": "Feature", "geometry": {"type": "Point", "coordinates": [55.46712578196484, -4.67607697730145]}, "properties": {"name": "Seychelles", "iso": "SYC"}}, {"type": "Feature", "geometry": {"type": "Point", "coordinates": [-157.37074807558886, 1.8498260947318164]}, "properties": {"name": "Kiribati", "iso": "KIR"}}, {"type": "Feature", "geometry": {"type": "Point", "coordinates": [171.20581287740603, 7.09948099763062]}, "properties": {"name": "Marshall Islands", "iso": "MHL"}}, {"type": "Feature", "geometry": {"type": "Point", "coordinates": [-61.29393707338629, 10.421859387852251]}, "properties": {"name": "Trinidad and Tobago", "iso": "TTO"}}, {"type": "Feature", "geometry": {"type": "Point", "coordinates": [-61.6790389912896, 12.117726394774657]}, "properties": {"name": "Grenada", "iso": "GRD"}}, {"type": "Feature", "geometry": {"type": "Point", "coordinates": [-61.19397494610339, 13.256501181193961]}, "properties": {"name": "Saint Vincent and the Grenadines", "iso": "VCT"}}, {"type": "Feature", "geometry": {"type": "Point", "coordinates": [-59.56121783703493, 13.181053845994025]}, "properties": {"name": "Barbados", "iso": "BRB"}}, {"type": "Feature", "geometry": {"type": "Point", "coordinates": [-60.97031644420179, 13.902670590752312]}, "properties": {"name": "Saint Lucia", "iso": "LCA"}}, {"type": "Feature", "geometry": {"type": "Point", "coordinates": [-61.3569176778275, 15.436440522110125]}, "properties": {"name": "Dominica", "iso": "DMA"}}, {"type": "Feature", "geometry": {"type": "Point", "coordinates": [-162.07654560171025, 5.880756647439736]}, "properties": {"name": "United States Minor Outlying Islands", "iso": "UMI"}}, {"type": "Feature", "geometry": {"type": "Point", "coordinates": [-62.18739871695461, 16.737523402688826]}, "properties": {"name": "Montserrat", "iso": "MSR"}}, {"type": "Feature", "geometry": {"type": "Point", "coordinates": [-61.78960019910859, 17.07479410670945]}, "properties": {"name": "Antigua and Barbuda", "iso": "ATG"}}, {"type": "Feature", "geometry": {"type": "Point", "coordinates": [-62.75797542297077, 17.332253513989485]}, "properties": {"name": "Saint Kitts and Nevis", "iso": "KNA"}}, {"type": "Feature", "geometry": {"type": "Point", "coordinates": [-64.76263762308635, 17.739306272416428]}, "properties": {"name": "United States Virgin Islands", "iso": "VIR"}}, {"type": "Feature", "geometry": {"type": "Point", "coordinates": [-62.83261980995111, 17.905584561496]}, "properties": {"name": "Saint Barthelemy", "iso": "BLM"}}, {"type": "Feature", "geometry": {"type": "Point", "coordinates": [-66.48107198063373, 18.22589574646647]}, "properties": {"name": "Puerto Rico", "iso": "PRI"}}, {"type": "Feature", "geometry": {"type": "Point", "coordinates": [-63.05741430417675, 18.224522508537]}, "properties": {"name": "Anguilla", "iso": "AIA"}}, {"type": "Feature", "geometry": {"type": "Point", "coordinates": [-64.62166432385052, 18.424100745534346]}, "properties": {"name": "British Virgin Islands", "iso": "VGB"}}, {"type": "Feature", "geometry": {"type": "Point", "coordinates": [-77.31881037052179, 18.155226401739878]}, "properties": {"name": "Jamaica", "iso": "JAM"}}, {"type": "Feature", "geometry": {"type": "Point", "coordinates": [-81.25179869116702, 19.318286502258385]}, "properties": {"name": "Cayman Islands", "iso": "CYM"}}, {"type": "Feature", "geometry": {"type": "Point", "coordinates": [-64.7617674881186, 32.310943710864706]}, "properties": {"name": "Bermuda", "iso": "BMU"}}, {"type": "Feature", "geometry": {"type": "Point", "coordinates": [73.50521040756003, -53.08881697236106]}, "properties": {"name": "Heard Island and McDonald Islands", "iso": "HMD"}}, {"type": "Feature", "geometry": {"type": "Point", "coordinates": [-5.717364375499273, -15.959097880530642]}, "properties": {"name": "Saint Helena", "iso": "SHN"}}, {"type": "Feature", "geometry": {"type": "Point", "coordinates": [57.56956670325691, -20.279323671313122]}, "properties": {"name": "Mauritius", "iso": "MUS"}}, {"type": "Feature", "geometry": {"type": "Point", "coordinates": [43.339727590909504, -11.655423647284504]}, "properties": {"name": "Comoros", "iso": "COM"}}, {"type": "Feature", "geometry": {"type": "Point", "coordinates": [6.607635325268513, 0.23556464865881105]}, "properties": {"name": "S\u00e3o Tom\u00e9 and Principe", "iso": "STP"}}, {"type": "Feature", "geometry": {"type": "Point", "coordinates": [-23.636846273237605, 15.081798748944408]}, "properties": {"name": "Cabo Verde", "iso": "CPV"}}, {"type": "Feature", "geometry": {"type": "Point", "coordinates": [14.44136153180274, 35.89061070598262]}, "properties": {"name": "Malta", "iso": "MLT"}}, {"type": "Feature", "geometry": {"type": "Point", "coordinates": [-2.1274308068739933, 49.22106419607293]}, "properties": {"name": "Jersey", "iso": "JEY"}}, {"type": "Feature", "geometry": {"type": "Point", "coordinates": [-2.5773504535403395, 49.463353557772386]}, "properties": {"name": "Guernsey", "iso": "GGY"}}, {"type": "Feature", "geometry": {"type": "Point", "coordinates": [-4.533695232958602, 54.22910190112926]}, "properties": {"name": "Isle of Man", "iso": "IMN"}}, {"type": "Feature", "geometry": {"type": "Point", "coordinates": [19.943717906332125, 60.22876490597846]}, "properties": {"name": "Aland", "iso": "ALA"}}, {"type": "Feature", "geometry": {"type": "Point", "coordinates": [-6.987173084186623, 62.137141739351605]}, "properties": {"name": "Faroe Islands", "iso": "FRO"}}, {"type": "Feature", "geometry": {"type": "Point", "coordinates": [105.66252267780537, -10.492523204746863]}, "properties": {"name": "Indian Ocean Territories", "iso": "-99"}}, {"type": "Feature", "geometry": {"type": "Point", "coordinates": [72.42623550015801, -7.346796867424158]}, "properties": {"name": "British Indian Ocean Territory", "iso": "IOT"}}, {"type": "Feature", "geometry": {"type": "Point", "coordinates": [103.81346757524045, 1.3589210191326393]}, "properties": {"name": "Singapore", "iso": "SGP"}}, {"type": "Feature", "geometry": {"type": "Point", "coordinates": [167.95516953046908, -29.034975144426735]}, "properties": {"name": "Norfolk Island", "iso": "NFK"}}, {"type": "Feature", "geometry": {"type": "Point", "coordinates": [-159.78651048506237, -21.21934387336087]}, "properties": {"name": "Cook Islands", "iso": "COK"}}, {"type": "Feature", "geometry": {"type": "Point", "coordinates": [-175.2046325402462, -21.171907563735857]}, "properties": {"name": "Tonga", "iso": "TON"}}, {"type": "Feature", "geometry": {"type": "Point", "coordinates": [-176.16192800646314, -13.281862393717313]}, "properties": {"name": "Wallis and Futuna", "iso": "WLF"}}, {"type": "Feature", "geometry": {"type": "Point", "coordinates": [-172.43824307621804, -13.630546954496152]}, "properties": {"name": "Samoa", "iso": "WSM"}}, {"type": "Feature", "geometry": {"type": "Point", "coordinates": [160.17030259048624, -9.622609272989228]}, "properties": {"name": "Solomon Islands", "iso": "SLB"}}, {"type": "Feature", "geometry": {"type": "Point", "coordinates": [179.20500726393178, -8.5040679894103]}, "properties": {"name": "Tuvalu", "iso": "TUV"}}, {"type": "Feature", "geometry": {"type": "Point", "coordinates": [73.50755312839988, 4.190794061692168]}, "properties": {"name": "Maldives", "iso": "MDV"}}, {"type": "Feature", "geometry": {"type": "Point", "coordinates": [166.9331320666274, -0.5207828086013211]}, "properties": {"name": "Nauru", "iso": "NRU"}}, {"type": "Feature", "geometry": {"type": "Point", "coordinates": [158.23401905170104, 6.882687896241752]}, "properties": {"name": "Federated States of Micronesia", "iso": "FSM"}}, {"type": "Feature", "geometry": {"type": "Point", "coordinates": [-36.683671501107675, -54.367675256791294]}, "properties": {"name": "South Georgia and the Islands", "iso": "SGS"}}, {"type": "Feature", "geometry": {"type": "Point", "coordinates": [-58.754127084429854, -51.73480204897868]}, "properties": {"name": "Falkland Islands", "iso": "FLK"}}, {"type": "Feature", "geometry": {"type": "Point", "coordinates": [166.8537745532296, -15.23148367906673]}, "properties": {"name": "Vanuatu", "iso": "VUT"}}, {"type": "Feature", "geometry": {"type": "Point", "coordinates": [-169.86934607376287, -19.048919830035103]}, "properties": {"name": "Niue", "iso": "NIU"}}, {"type": "Feature", "geometry": {"type": "Point", "coordinates": [-170.71615336464475, -14.304813714458604]}, "properties": {"name": "American Samoa", "iso": "ASM"}}, {"type": "Feature", "geometry": {"type": "Point", "coordinates": [134.58014880851368, 7.513818739903367]}, "properties": {"name": "Palau", "iso": "PLW"}}, {"type": "Feature", "geometry": {"type": "Point", "coordinates": [144.77193911773887, 13.443792985817382]}, "properties": {"name": "Guam", "iso": "GUM"}}, {"type": "Feature", "geometry": {"type": "Point", "coordinates": [145.74136946269178, 15.183666979555976]}, "properties": {"name": "Northern Mariana Islands", "iso": "MNP"}}, {"type": "Feature", "geometry": {"type": "Point", "coordinates": [50.54661944223227, 26.052784579707655]}, "properties": {"name": "Bahrain", "iso": "BHR"}}, {"type": "Feature", "geometry": {"type": "Point", "coordinates": [154.3903646666667, -21.029283666666668]}, "properties": {"name": "Coral Sea Islands", "iso": "-99"}}, {"type": "Feature", "geometry": {"type": "Point", "coordinates": [115.82220502464938, 10.72970724124479]}, "properties": {"name": "Spratly Islands", "iso": "-99"}}, {"type": "Feature", "geometry": {"type": "Point", "coordinates": [-109.22126428343252, 10.297389268315541]}, "properties": {"name": "Clipperton Island", "iso": "-99"}}, {"type": "Feature", "geometry": {"type": "Point", "coordinates": [113.55645537907895, 22.137158273242555]}, "properties": {"name": "Macao S.A.R", "iso": "MAC"}}, {"type": "Feature", "geometry": {"type": "Point", "coordinates": [123.58636771289328, -12.432577311268105]}, "properties": {"name": "Ashmore and Cartier Islands", "iso": "-99"}}, {"type": "Feature", "geometry": {"type": "Point", "coordinates": [-79.98786596215572, 15.7950102177156]}, "properties": {"name": "Bajo Nuevo Bank (Petrel Is.)", "iso": "-99"}}, {"type": "Feature", "geometry": {"type": "Point", "coordinates": [-78.63811866666667, 15.864461000000002]}, "properties": {"name": "Serranilla Bank", "iso": "-99"}}, {"type": "Feature", "geometry": {"type": "Point", "coordinates": [117.75381166666666, 15.152112666666667]}, "properties": {"name": "Scarborough Reef", "iso": "-99"}}, {"type": "Feature", "geometry": {"type": "Point", "coordinates": [79.57640582148261, 22.922390151570912]}, "properties": {"name": "India", "iso": "IND"}}]}